STARLINK-32710          
1 62604U 25008T   26068.00560064  .00034734  00000+0  12656-2 0  9998
2 62604  43.0054 281.4422 0003349 264.1752  95.8718 15.27583206 65463
FLOCK 4G-6              
1 62660U 25009BD  26068.71061311  .00012261  00000+0  45910-3 0  9991
2 62660  97.3980 150.7943 0002380 348.2637  11.8546 15.27432125121307
